[{"OBJECT_NAME":"HELIOS 1B","OBJECT_ID":"1999-064A","EPOCH":"2026-03-11T06:15:33.308352","MEAN_MOTION":14.87706219,"ECCENTRICITY":0.00024601,"INCLINATION":98.1687,"RA_OF_ASC_NODE":332.5502,"ARG_OF_PERICENTER":72.9735,"MEAN_ANOMALY":287.175,"EPHEMERIS_TYPE":0,"CLASSIFICATION_TYPE":"U","NORAD_CAT_ID":25977,"ELEMENT_SET_NO":999,"REV_AT_EPOCH":68549,"BSTAR":0.0002533637,"MEAN_MOTION_DOT":2.25e-5,"MEAN_MOTION_DDOT":0},{"OBJECT_NAME":"TERRA","OBJECT_ID":"1999-068A","EPOCH":"2026-03-11T06:58:34.726944","MEAN_MOTION":14.61016613,"ECCENTRICITY":0.00028014,"INCLINATION":97.9591,"RA_OF_ASC_NODE":123.6642,"ARG_OF_PERICENTER":147.7255,"MEAN_ANOMALY":274.7183,"EPHEMERIS_TYPE":0,"CLASSIFICATION_TYPE":"U","NORAD_CAT_ID":25994,"ELEMENT_SET_NO":999,"REV_AT_EPOCH":39531,"BSTAR":0.00011444161,"MEAN_MOTION_DOT":5.17e-6,"MEAN_MOTION_DDOT":0},{"OBJECT_NAME":"SL-16 R/B","OBJECT_ID":"2000-006B","EPOCH":"2026-03-11T06:49:14.411712","MEAN_MOTION":14.15825566,"ECCENTRICITY":0.00166789,"INCLINATION":71.0008,"RA_OF_ASC_NODE":94.4847,"ARG_OF_PERICENTER":187.9228,"MEAN_ANOMALY":172.1635,"EPHEMERIS_TYPE":0,"CLASSIFICATION_TYPE":"U","NORAD_CAT_ID":26070,"ELEMENT_SET_NO":999,"REV_AT_EPOCH":34878,"BSTAR":-5.2560091e-5,"MEAN_MOTION_DOT":-1.51e-6,"MEAN_MOTION_DDOT":0},{"OBJECT_NAME":"TITAN 4B R/B","OBJECT_ID":"2000-047B","EPOCH":"2026-03-11T06:52:53.802912","MEAN_MOTION":15.09581229,"ECCENTRICITY":0.00386508,"INCLINATION":67.9902,"RA_OF_ASC_NODE":36.0194,"ARG_OF_PERICENTER":33.5334,"MEAN_ANOMALY":326.825,"EPHEMERIS_TYPE":0,"CLASSIFICATION_TYPE":"U","NORAD_CAT_ID":26474,"ELEMENT_SET_NO":999,"REV_AT_EPOCH":39315,"BSTAR":0.00033283709,"MEAN_MOTION_DOT":5.32e-5,"MEAN_MOTION_DDOT":0},{"OBJECT_NAME":"ENVISAT","OBJECT_ID":"2002-009A","EPOCH":"2026-03-11T07:12:40.983840","MEAN_MOTION":14.39037646,"ECCENTRICITY":0.00013125,"INCLINATION":98.373,"RA_OF_ASC_NODE":23.8594,"ARG_OF_PERICENTER":82.8948,"MEAN_ANOMALY":80.282,"EPHEMERIS_TYPE":0,"CLASSIFICATION_TYPE":"U","NORAD_CAT_ID":27386,"ELEMENT_SET_NO":999,"REV_AT_EPOCH":25940,"BSTAR":6.750135e-5,"MEAN_MOTION_DOT":1.66e-6,"MEAN_MOTION_DDOT":0},{"OBJECT_NAME":"IDEFIX & ARIANE 42P R/B","OBJECT_ID":"2002-021B","EPOCH":"2026-03-11T07:31:50.764800","MEAN_MOTION":14.31027467,"ECCENTRICITY":0.00116684,"INCLINATION":98.5869,"RA_OF_ASC_NODE":8.9006,"ARG_OF_PERICENTER":177.3716,"MEAN_ANOMALY":182.753,"EPHEMERIS_TYPE":0,"CLASSIFICATION_TYPE":"U","NORAD_CAT_ID":27422,"ELEMENT_SET_NO":999,"REV_AT_EPOCH":24425,"BSTAR":0.00014441934,"MEAN_MOTION_DOT":3.37e-6,"MEAN_MOTION_DDOT":0},{"OBJECT_NAME":"AQUA","OBJECT_ID":"2002-022A","EPOCH":"2026-03-11T08:17:56.015808","MEAN_MOTION":14.61981567,"ECCENTRICITY":5.599e-5,"INCLINATION":98.4177,"RA_OF_ASC_NODE":37.7409,"ARG_OF_PERICENTER":86.8983,"MEAN_ANOMALY":72.3097,"EPHEMERIS_TYPE":0,"CLASSIFICATION_TYPE":"U","NORAD_CAT_ID":27424,"ELEMENT_SET_NO":999,"REV_AT_EPOCH":26897,"BSTAR":0.00026612469,"MEAN_MOTION_DOT":1.284e-5,"MEAN_MOTION_DDOT":0},{"OBJECT_NAME":"CZ-4B R/B","OBJECT_ID":"2002-024C","EPOCH":"2026-03-11T03:02:32.368992","MEAN_MOTION":14.14547798,"ECCENTRICITY":0.00504081,"INCLINATION":98.8836,"RA_OF_ASC_NODE":123.5263,"ARG_OF_PERICENTER":20.1321,"MEAN_ANOMALY":5.9283,"EPHEMERIS_TYPE":0,"CLASSIFICATION_TYPE":"U","NORAD_CAT_ID":27432,"ELEMENT_SET_NO":999,"REV_AT_EPOCH":22944,"BSTAR":4.2611474e-5,"MEAN_MOTION_DOT":3.8e-7,"MEAN_MOTION_DDOT":0},{"OBJECT_NAME":"MIDORI II (ADEOS-II)","OBJECT_ID":"2002-056A","EPOCH":"2026-03-11T06:34:16.792608","MEAN_MOTION":14.29286609,"ECCENTRICITY":0.00015267,"INCLINATION":98.7769,"RA_OF_ASC_NODE":28.7622,"ARG_OF_PERICENTER":40.7877,"MEAN_ANOMALY":319.3419,"EPHEMERIS_TYPE":0,"CLASSIFICATION_TYPE":"U","NORAD_CAT_ID":27597,"ELEMENT_SET_NO":999,"REV_AT_EPOCH":21052,"BSTAR":0.00017186224,"MEAN_MOTION_DOT":3.92e-6,"MEAN_MOTION_DDOT":0},{"OBJECT_NAME":"H-2A R/B","OBJECT_ID":"2002-056E","EPOCH":"2026-03-11T07:47:23.047584","MEAN_MOTION":14.33761891,"ECCENTRICITY":0.00705973,"INCLINATION":98.3205,"RA_OF_ASC_NODE":30.6279,"ARG_OF_PERICENTER":155.834,"MEAN_ANOMALY":327.9284,"EPHEMERIS_TYPE":0,"CLASSIFICATION_TYPE":"U","NORAD_CAT_ID":27601,"ELEMENT_SET_NO":999,"REV_AT_EPOCH":21434,"BSTAR":0.00012540326,"MEAN_MOTION_DOT":3.17e-6,"MEAN_MOTION_DDOT":0},{"OBJECT_NAME":"CZ-4B R/B","OBJECT_ID":"2003-049C","EPOCH":"2026-03-11T05:45:57.760704","MEAN_MOTION":14.55021709,"ECCENTRICITY":0.00473187,"INCLINATION":98.6879,"RA_OF_ASC_NODE":65.2058,"ARG_OF_PERICENTER":226.0697,"MEAN_ANOMALY":133.659,"EPHEMERIS_TYPE":0,"CLASSIFICATION_TYPE":"U","NORAD_CAT_ID":28059,"ELEMENT_SET_NO":999,"REV_AT_EPOCH":18682,"BSTAR":0.00011510206,"MEAN_MOTION_DOT":4.51e-6,"MEAN_MOTION_DDOT":0},{"OBJECT_NAME":"CZ-2C R/B","OBJECT_ID":"2004-012C","EPOCH":"2026-03-11T03:27:29.768256","MEAN_MOTION":15.6470144,"ECCENTRICITY":0.00128761,"INCLINATION":97.722,"RA_OF_ASC_NODE":135.574,"ARG_OF_PERICENTER":303.5427,"MEAN_ANOMALY":56.4601,"EPHEMERIS_TYPE":0,"CLASSIFICATION_TYPE":"U","NORAD_CAT_ID":28222,"ELEMENT_SET_NO":999,"REV_AT_EPOCH":20450,"BSTAR":0.00064070035,"MEAN_MOTION_DOT":0.00062581,"MEAN_MOTION_DDOT":0},{"OBJECT_NAME":"SL-16 R/B","OBJECT_ID":"2004-021B","EPOCH":"2026-03-10T20:54:36.936576","MEAN_MOTION":14.14597524,"ECCENTRICITY":0.0004123,"INCLINATION":70.9996,"RA_OF_ASC_NODE":230.0127,"ARG_OF_PERICENTER":7.5173,"MEAN_ANOMALY":352.601,"EPHEMERIS_TYPE":0,"CLASSIFICATION_TYPE":"U","NORAD_CAT_ID":28353,"ELEMENT_SET_NO":999,"REV_AT_EPOCH":12300,"BSTAR":-0.00010787,"MEAN_MOTION_DOT":-2.55e-6,"MEAN_MOTION_DDOT":0},{"OBJECT_NAME":"CZ-4B R/B","OBJECT_ID":"2004-035C","EPOCH":"2026-03-11T02:05:30.624000","MEAN_MOTION":15.29092863,"ECCENTRICITY":0.00307695,"INCLINATION":97.3502,"RA_OF_ASC_NODE":104.3128,"ARG_OF_PERICENTER":326.3773,"MEAN_ANOMALY":33.5514,"EPHEMERIS_TYPE":0,"CLASSIFICATION_TYPE":"U","NORAD_CAT_ID":28415,"ELEMENT_SET_NO":999,"REV_AT_EPOCH":18012,"BSTAR":0.00032998018,"MEAN_MOTION_DOT":9.377e-5,"MEAN_MOTION_DDOT":0},{"OBJECT_NAME":"CZ-2C R/B","OBJECT_ID":"2004-046B","EPOCH":"2026-03-11T07:24:28.432224","MEAN_MOTION":14.26992615,"ECCENTRICITY":0.01399516,"INCLINATION":98.198,"RA_OF_ASC_NODE":345.1919,"ARG_OF_PERICENTER":149.6782,"MEAN_ANOMALY":211.259,"EPHEMERIS_TYPE":0,"CLASSIFICATION_TYPE":"U","NORAD_CAT_ID":28480,"ELEMENT_SET_NO":999,"REV_AT_EPOCH":10873,"BSTAR":6.336566e-5,"MEAN_MOTION_DOT":1.31e-6,"MEAN_MOTION_DDOT":0},{"OBJECT_NAME":"ARIANE 5 R/B","OBJECT_ID":"2004-049H","EPOCH":"2026-03-11T04:22:16.057920","MEAN_MOTION":14.85268917,"ECCENTRICITY":0.00838305,"INCLINATION":98.2629,"RA_OF_ASC_NODE":238.695,"ARG_OF_PERICENTER":347.0668,"MEAN_ANOMALY":12.8394,"EPHEMERIS_TYPE":0,"CLASSIFICATION_TYPE":"U","NORAD_CAT_ID":28499,"ELEMENT_SET_NO":999,"REV_AT_EPOCH":14601,"BSTAR":0.00011007366,"MEAN_MOTION_DOT":9.41e-6,"MEAN_MOTION_DDOT":0},{"OBJECT_NAME":"CZ-2D R/B","OBJECT_ID":"2005-024B","EPOCH":"2026-03-11T07:30:23.992416","MEAN_MOTION":15.60307728,"ECCENTRICITY":0.00056189,"INCLINATION":97.3602,"RA_OF_ASC_NODE":85.5187,"ARG_OF_PERICENTER":42.4317,"MEAN_ANOMALY":317.7373,"EPHEMERIS_TYPE":0,"CLASSIFICATION_TYPE":"U","NORAD_CAT_ID":28738,"ELEMENT_SET_NO":999,"REV_AT_EPOCH":14003,"BSTAR":0.00061091441,"MEAN_MOTION_DOT":0.00050072,"MEAN_MOTION_DDOT":0}]
