HELIOS 1B               
1 25977U 99064A   26070.26080218  .00002250  00000+0  25336-3 0  9990
2 25977  98.1687 332.5502 0002460  72.9735 287.1750 14.87706219685493
TERRA                   
1 25994U 99068A   26070.29067971  .00000517  00000+0  11444-3 0  9996
2 25994  97.9591 123.6642 0002801 147.7255 274.7183 14.61016613395319
SL-16 R/B               
1 26070U 00006B   26070.28419458 -.00000151  00000+0 -52560-4 0  9997
2 26070  71.0008  94.4847 0016678 187.9228 172.1635 14.15825566348782
TITAN 4B R/B            
1 26474U 00047B   26070.28673383  .00005320  00000+0  33284-3 0  9991
2 26474  67.9902  36.0194 0038650  33.5334 326.8250 15.09581229393153
ENVISAT                 
1 27386U 02009A   26070.30047435  .00000166  00000+0  67501-4 0  9993
2 27386  98.3730  23.8594 0001312  82.8948  80.2820 14.39037646259408
IDEFIX & ARIANE 42P R/B 
1 27422U 02021B   26070.31378200  .00000337  00000+0  14442-3 0  9991
2 27422  98.5869   8.9006 0011668 177.3716 182.7530 14.31027467244259
AQUA                    
1 27424U 02022A   26070.34578722  .00001284  00000+0  26612-3 0  9992
2 27424  98.4177  37.7409 0000559  86.8983  72.3097 14.61981567268976
CZ-4B R/B               
1 27432U 02024C   26070.12676353  .00000038  00000+0  42611-4 0  9992
2 27432  98.8836 123.5263 0050408  20.1321   5.9283 14.14547798229448
MIDORI II (ADEOS-II)    
1 27597U 02056A   26070.27380547  .00000392  00000+0  17186-3 0  9993
2 27597  98.7769  28.7622 0001526  40.7877 319.3419 14.29286609210529
H-2A R/B                
1 27601U 02056E   26070.32457231  .00000317  00000+0  12540-3 0  9996
2 27601  98.3205  30.6279 0070597 155.8340 327.9284 14.33761891214348
CZ-4B R/B               
1 28059U 03049C   26070.24025186  .00000451  00000+0  11510-3 0  9993
2 28059  98.6879  65.2058 0047318 226.0697 133.6590 14.55021709186820
CZ-2C R/B               
1 28222U 04012C   26070.14409454  .00062581  00000+0  64070-3 0  9990
2 28222  97.7220 135.5740 0012876 303.5427  56.4601 15.64701440204503
SL-16 R/B               
1 28353U 04021B   26069.87126084 -.00000255  00000+0 -10787-3 0  9996
2 28353  70.9996 230.0127 0004123   7.5173 352.6010 14.14597524123006
CZ-4B R/B               
1 28415U 04035C   26070.08716000  .00009377  00000+0  32998-3 0  9998
2 28415  97.3502 104.3128 0030769 326.3773  33.5514 15.29092863180121
CZ-2C R/B               
1 28480U 04046B   26070.30866241  .00000131  00000+0  63366-4 0  9993
2 28480  98.1980 345.1919 0139951 149.6782 211.2590 14.26992615108730
ARIANE 5 R/B            
1 28499U 04049H   26070.18213030  .00000941  00000+0  11007-3 0  9997
2 28499  98.2629 238.6950 0083830 347.0668  12.8394 14.85268917146019
CZ-2D R/B               
1 28738U 05024B   26070.31277769  .00050072  00000+0  61091-3 0  9999
2 28738  97.3602  85.5187 0005618  42.4317 317.7373 15.60307728140030
